*******************************************************************************
Ephemeris / WWW_USER Tue Mar 11 05:48:25 2025 Pasadena, USA      / Horizons    
*******************************************************************************
Target body name: 768325 (2015 BP519)             {source: JPL#13}
Center body name: Earth (399)                     {source: DE441}
Center-site name: Gemini South Obs., Cerro Pachon
*******************************************************************************
Start time      : A.D. 2018-Sep-27 22:50:00.0000 UT      
Stop  time      : A.D. 2018-Sep-28 10:16:00.0000 UT      
Step-size       : 1 minutes
*******************************************************************************
Target pole/equ : undefined
Target radii    : undefined                                                    
Center geodetic : 289.2634, -30.2406227, 2.71233  {E-lon(deg),Lat(deg),Alt(km)}
Center cylindric: 289.2634,5517.21435,-3194.81213 {E-lon(deg),Dxy(km),Dz(km)}
Center pole/equ : ITRF93                          {East-longitude positive}
Center radii    : 6378.137, 6378.137, 6356.752 km {Equator_a, b, pole_c}       
Target primary  : Sun
Vis. interferer : MOON (R_eq= 1737.400) km        {source: DE441}
Rel. light bend : Sun                             {source: DE441}
Rel. lght bnd GM: 1.3271E+11 km^3/s^2                                          
Small-body perts: Yes                             {source: SB441-N16}
Atmos refraction: NO (AIRLESS)
RA format       : HMS
Time format     : CAL 
Calendar mode   : Mixed Julian/Gregorian
RTS-only print  : NO       
EOP file        : eop.250310.p250606                                           
EOP coverage    : DATA-BASED 1962-JAN-20 TO 2025-MAR-10. PREDICTS-> 2025-JUN-05
Units conversion: 1 au= 149597870.700 km, c= 299792.458 km/s, 1 day= 86400.0 s 
Table cut-offs 1: Elevation (-90.0deg=NO ),Airmass (>38.000=NO), Daylight (YES)
Table cut-offs 2: Solar elongation (  0.0,180.0=NO ),Local Hour Angle( 0.0=NO )
Table cut-offs 3: RA/DEC angular rate (     0.0=NO )                           
*******************************************************************************
Initial IAU76/J2000 heliocentric ecliptic osculating elements (au, days, deg.):
  EPOCH=  2459486.5 ! 2021-Sep-29.00 (TDB)         Residual RMS= .071772       
   EC= .9216453194433936   QR= 35.32438628437644   TP= 2473006.6899544764      
   OM= 135.0347983875217   W=  347.957608556413    IN= 54.13315864151695       
  Equivalent ICRF heliocentric cartesian coordinates (au, au/d):
   X= 1.447262462803667E+01  Y= 4.058013389773870E+01  Z=-2.635496110070412E+01
  VX=-2.666905795807619E-03 VY= 1.989051018714909E-05 VZ= 1.987184001515517E-03
Asteroid physical parameters (km, seconds, rotational period in hours):        
   GM= n.a.                RAD= n.a.               ROTPER= n.a.                
   H= 4.34                 G= .150                 B-V= n.a.                   
                           ALBEDO= n.a.            STYP= n.a.                  
*******************************************************************************
 Date__(UT)__HR:MN     R.A._________(ICRF)_________DEC
******************************************************
$$SOE
 2018-Sep-28 09:05 Am  04 31 48.017609 -33 11 13.56734
 2018-Sep-28 09:06 Am  04 31 48.016456 -33 11 13.60070
 2018-Sep-28 09:07 Am  04 31 48.015303 -33 11 13.63405
 2018-Sep-28 09:08 Am  04 31 48.014150 -33 11 13.66741
 2018-Sep-28 09:09 Am  04 31 48.012997 -33 11 13.70076
 2018-Sep-28 09:10 Am  04 31 48.011845 -33 11 13.73411
 2018-Sep-28 09:11 Am  04 31 48.010692 -33 11 13.76746
 2018-Sep-28 09:12 Am  04 31 48.009539 -33 11 13.80081
 2018-Sep-28 09:13 Am  04 31 48.008386 -33 11 13.83415
 2018-Sep-28 09:14 Am  04 31 48.007233 -33 11 13.86750
 2018-Sep-28 09:15 Am  04 31 48.006080 -33 11 13.90084
 2018-Sep-28 09:16 Am  04 31 48.004927 -33 11 13.93418
 2018-Sep-28 09:17 Am  04 31 48.003774 -33 11 13.96752
 2018-Sep-28 09:18 Am  04 31 48.002621 -33 11 14.00086
 2018-Sep-28 09:19 Am  04 31 48.001468 -33 11 14.03419
 2018-Sep-28 09:20 Am  04 31 48.000315 -33 11 14.06753
 2018-Sep-28 09:21 Am  04 31 47.999162 -33 11 14.10086
 2018-Sep-28 09:22 Am  04 31 47.998010 -33 11 14.13419
 2018-Sep-28 09:23 Am  04 31 47.996857 -33 11 14.16752
 2018-Sep-28 09:24 Am  04 31 47.995704 -33 11 14.20085
 2018-Sep-28 09:25 Am  04 31 47.994550 -33 11 14.23417
 2018-Sep-28 09:26 Am  04 31 47.993397 -33 11 14.26750
 2018-Sep-28 09:27 Am  04 31 47.992244 -33 11 14.30082
 2018-Sep-28 09:28 Am  04 31 47.991091 -33 11 14.33414
 2018-Sep-28 09:29 Am  04 31 47.989938 -33 11 14.36746
 2018-Sep-28 09:30 Am  04 31 47.988785 -33 11 14.40078
 2018-Sep-28 09:31 Am  04 31 47.987632 -33 11 14.43410
 2018-Sep-28 09:32 Am  04 31 47.986479 -33 11 14.46741
 2018-Sep-28 09:33 Nm  04 31 47.985326 -33 11 14.50072
 2018-Sep-28 09:34 Nm  04 31 47.984173 -33 11 14.53403
 2018-Sep-28 09:35 Nm  04 31 47.983020 -33 11 14.56734
 2018-Sep-28 09:36 Nm  04 31 47.981867 -33 11 14.60065
 2018-Sep-28 09:37 Nm  04 31 47.980714 -33 11 14.63396
 2018-Sep-28 09:38 Nm  04 31 47.979561 -33 11 14.66726
 2018-Sep-28 09:39 Nm  04 31 47.978408 -33 11 14.70057
 2018-Sep-28 09:40 Nm  04 31 47.977255 -33 11 14.73387
 2018-Sep-28 09:41 Nm  04 31 47.976103 -33 11 14.76717
 2018-Sep-28 09:42 Nm  04 31 47.974950 -33 11 14.80047
 2018-Sep-28 09:43 Nm  04 31 47.973797 -33 11 14.83376
 2018-Sep-28 09:44 Nm  04 31 47.972644 -33 11 14.86706
 2018-Sep-28 09:45 Nm  04 31 47.971491 -33 11 14.90035
 2018-Sep-28 09:46 Nm  04 31 47.970338 -33 11 14.93364
 2018-Sep-28 09:47 Nm  04 31 47.969185 -33 11 14.96693
 2018-Sep-28 09:48 Nm  04 31 47.968032 -33 11 15.00022
 2018-Sep-28 09:49 Nm  04 31 47.966879 -33 11 15.03351
 2018-Sep-28 09:50 Nm  04 31 47.965727 -33 11 15.06679
 2018-Sep-28 09:51 Nm  04 31 47.964574 -33 11 15.10008
 2018-Sep-28 09:52 Nm  04 31 47.963421 -33 11 15.13336
 2018-Sep-28 09:53 Nm  04 31 47.962268 -33 11 15.16664
 2018-Sep-28 09:54 Nm  04 31 47.961115 -33 11 15.19992
 2018-Sep-28 09:55 Nm  04 31 47.959963 -33 11 15.23319
 2018-Sep-28 09:56 Nm  04 31 47.958810 -33 11 15.26647
 2018-Sep-28 09:57 Nm  04 31 47.957657 -33 11 15.29974
 2018-Sep-28 09:58 Nm  04 31 47.956505 -33 11 15.33301
 2018-Sep-28 09:59 Nm  04 31 47.955352 -33 11 15.36629
 2018-Sep-28 10:00 Nm  04 31 47.954200 -33 11 15.39955
 2018-Sep-28 10:01 Cm  04 31 47.953047 -33 11 15.43282
 2018-Sep-28 10:02 Cm  04 31 47.951895 -33 11 15.46609
 2018-Sep-28 10:03 Cm  04 31 47.950742 -33 11 15.49935
 2018-Sep-28 10:04 Cm  04 31 47.949590 -33 11 15.53261
 2018-Sep-28 10:05 Cm  04 31 47.948437 -33 11 15.56588
 2018-Sep-28 10:06 Cm  04 31 47.947285 -33 11 15.59914
 2018-Sep-28 10:07 Cm  04 31 47.946132 -33 11 15.63239
 2018-Sep-28 10:08 Cm  04 31 47.944980 -33 11 15.66565
 2018-Sep-28 10:09 Cm  04 31 47.943828 -33 11 15.69890
 2018-Sep-28 10:10 Cm  04 31 47.942676 -33 11 15.73216
 2018-Sep-28 10:11 Cm  04 31 47.941523 -33 11 15.76541
 2018-Sep-28 10:12 Cm  04 31 47.940371 -33 11 15.79866
 2018-Sep-28 10:13 Cm  04 31 47.939219 -33 11 15.83191
 2018-Sep-28 10:14 Cm  04 31 47.938067 -33 11 15.86515
 2018-Sep-28 10:15 Cm  04 31 47.936915 -33 11 15.89840
 2018-Sep-28 10:16 Cm  04 31 47.935763 -33 11 15.93164
